ONEWEB-0650             
1 55813U 23029T   23317.73251327  .00000071  00000+0  14561-3 0  9991
2 55813  87.9181 133.3510 0001078  89.6814 270.4442 13.19725950 34064
ONEWEB-0652             
1 55814U 23029U   23317.87318543  .00000643  00000+0  17001-2 0  9997
2 55814  87.8951 118.0760 0001678  87.5925 272.5397 13.14511235 35047
ONEWEB-0653             
1 55815U 23029V   23317.70507818 -.00000178  00000+0 -51480-3 0  9990
2 55815  87.9035 118.0633 0001747  80.5375 279.5952 13.14504278 35054
ONEWEB-0654             
1 55816U 23029W   23317.70032144 -.00000122  00000+0 -36296-3 0  9993
2 55816  87.8956 118.1010 0002131  86.9533 273.1840 13.14511812 35070
ONEWEB-0656             
1 55817U 23029X   23317.91667824  .00000013  00000+0  00000+0 0  9993
2 55817  87.9249 102.7788 0001763 122.1217 188.3949 13.22818964 36929
ONEWEB-0657             
1 55818U 23029Y   23317.72776745  .00000129  00000+0  28903-3 0  9990
2 55818  87.9182 133.3575 0001993 118.4399 241.6935 13.19725092 34071
ONEWEB-0658             
1 55819U 23029Z   23317.72303266  .00000003  00000+0 -24078-4 0  9997
2 55819  87.9161 133.2978 0000861  81.8256 278.2974 13.19724224 34089
ONEWEB-0660             
1 55820U 23029AA  23317.67813061  .00000699  00000+0  18494-2 0  9995
2 55820  87.8963 118.0790 0001386  67.8292 292.2984 13.14505653 35053
